NORAD_CAT_ID,OBJECT_NAME,OBJECT_TYPE,EPOCH,MEAN_MOTION,ECCENTRICITY,INCLINATION,RA_OF_ASC_NODE,ARG_OF_PERICENTER,MEAN_ANOMALY,BSTAR,MEAN_MOTION_DOT,MEAN_MOTION_DDOT,TLE_LINE0,TLE_LINE1,TLE_LINE2,SEMIMAJOR_AXIS,PERIOD,APOGEE,PERIGEE,DECAYED
53030.0,STARLINK-4160,PAYLOAD,2024-07-11 13:48:23,15.08849667,0.0001363,53.216,285.2698,95.1514,264.9633,0.00033256,5.01e-05,0.0,0 STARLINK-4160,1 53030U 22076AW  24193.57527300  .00005010  00000-0  33256-3 0  9994,2 53030  53.2160 285.2698 0001363  95.1514 264.9633 15.08849667111480,6917.851,95.437,540.659,538.773,0.0
53030.0,STARLINK-4160,PAYLOAD,2024-07-12 05:42:15,15.08843965,0.0001507,53.2151,282.2992,79.9611,280.1551,0.00016118,2.278e-05,0.0,0 STARLINK-4160,1 53030U 22076AW  24194.23767534  .00002278  00000-0  16118-3 0  9994,2 53030  53.2151 282.2992 0001507  79.9611 280.1551 15.08843965112050,6917.868,95.437,540.776,538.691,0.0
53030.0,STARLINK-4160,PAYLOAD,2024-07-12 12:03:47,15.08839327,0.0001433,53.2151,281.1082,79.254,280.8613,7.9525e-06,-1.61e-06,0.0,0 STARLINK-4160,1 53030U 22076AW  24194.50263669 -.00000161  00000-0  79525-5 0  9997,2 53030  53.2151 281.1082 0001433  79.2540 280.8613 15.08839327111625,6917.882,95.438,540.739,538.756,0.0
53030.0,STARLINK-4160,PAYLOAD,2024-07-13 11:54:34,15.08843372,0.0001433,53.2158,276.6454,92.0883,268.0273,1.6303e-05,-2.8e-07,0.0,0 STARLINK-4160,1 53030U 22076AW  24195.49623361 -.00000028  00000-0  16303-4 0  9991,2 53030  53.2158 276.6454 0001433  92.0883 268.0273 15.08843372112241,6917.87,95.437,540.726,538.744,0.0
53030.0,STARLINK-4160,PAYLOAD,2024-07-14 05:23:49,15.0883603,0.000141,53.2149,273.3741,95.3098,264.8055,0.00015251,2.14e-05,0.0,0 STARLINK-4160,1 53030U 22076AW  24196.22487829  .00002140  00000-0  15251-3 0  9996,2 53030  53.2149 273.3741 0001410  95.3098 264.8055 15.08836030112350,6917.893,95.438,540.733,538.782,0.0
53030.0,STARLINK-4160,PAYLOAD,2024-07-14 11:45:21,15.08841933,0.0001568,53.217,272.1869,81.8048,278.3122,0.00013108,1.799e-05,0.0,0 STARLINK-4160,1 53030U 22076AW  24196.48983675  .00001799  00000-0  13108-3 0  9992,2 53030  53.2170 272.1869 0001568  81.8048 278.3122 15.08841933111926,6917.874,95.437,540.824,538.655,0.0
53030.0,STARLINK-4160,PAYLOAD,2024-07-15 11:36:08,15.08842066,0.0001429,53.2158,267.7236,86.3735,273.742,0.00011241,1.502e-05,0.0,0 STARLINK-4160,1 53030U 22076AW  24197.48343596  .00001502  00000-0  11241-3 0  9993,2 53030  53.2158 267.7236 0001429  86.3735 273.7420 15.08842066112546,6917.874,95.437,540.728,538.751,0.0
53030.0,STARLINK-4160,PAYLOAD,2024-07-15 21:08:27,15.0883739,0.0001355,53.2152,265.9384,82.264,277.8506,-5.9217e-06,-3.82e-06,0.0,0 STARLINK-4160,1 53030U 22076AW  24197.88087686 -.00000382  00000-0 -59217-5 0  9996,2 53030  53.2152 265.9384 0001355  82.2640 277.8506 15.08837390112131,6917.888,95.438,540.691,538.816,0.0
53030.0,STARLINK-4160,PAYLOAD,2024-07-16 03:30:00,15.08833718,0.0001407,53.2152,264.7516,84.1135,276.0018,-4.6931e-05,-1.035e-05,0.0,0 STARLINK-4160,1 53030U 22076AW  24198.14583931 -.00001035  00000-0 -46931-4 0  9994,2 53030  53.2152 264.7516 0001407  84.1135 276.0018 15.08833718112648,6917.9,95.438,540.738,538.791,0.0
53030.0,STARLINK-4160,PAYLOAD,2024-07-16 11:26:55,15.08840243,0.0001507,53.2169,263.2646,89.6624,270.4541,-1.3706e-06,-3.1e-06,0.0,0 STARLINK-4160,1 53030U 22076AW  24198.47703551 -.00000310  00000-0 -13706-5 0  9992,2 53030  53.2169 263.2646 0001507  89.6624 270.4541 15.08840243112222,6917.88,95.438,540.787,538.702,0.0
53030.0,STARLINK-4160,PAYLOAD,2024-07-17 11:17:43,15.08828371,0.0001543,53.2167,258.8074,102.8574,257.2591,-0.00017579,-3.084e-05,0.0,0 STARLINK-4160,1 53030U 22076AW  24199.47064424 -.00003084  00000-0 -17579-3 0  9993,2 53030  53.2167 258.8074 0001543 102.8574 257.2591 15.08828371112841,6917.916,95.438,540.848,538.713,0.0
53030.0,STARLINK-4160,PAYLOAD,2024-07-18 11:08:30,15.08843726,0.0001328,53.2158,254.3445,96.1398,263.9746,0.00021745,3.175e-05,0.0,0 STARLINK-4160,1 53030U 22076AW  24200.46424161  .00003175  00000-0  21745-3 0  9992,2 53030  53.2158 254.3445 0001328  96.1398 263.9746 15.08843726112997,6917.869,95.437,540.653,538.815,0.0
53030.0,STARLINK-4160,PAYLOAD,2024-07-19 03:02:22,15.08839752,0.0001485,53.2153,251.3711,72.3643,287.7511,0.00011798,1.59e-05,0.0,0 STARLINK-4160,1 53030U 22076AW  24201.12664541  .00001590  00000-0  11798-3 0  9990,2 53030  53.2153 251.3711 0001485  72.3643 287.7511 15.08839752113098,6917.881,95.438,540.773,538.719,0.0
53030.0,STARLINK-4160,PAYLOAD,2024-07-19 10:59:17,15.08838827,0.000135,53.2148,249.8816,88.2317,271.883,6.1519e-05,6.91e-06,0.0,0 STARLINK-4160,1 53030U 22076AW  24201.45784453  .00000691  00000-0  61519-4 0  9999,2 53030  53.2148 249.8816 0001350  88.2317 271.8830 15.08838827112678,6917.884,95.438,540.683,538.815,0.0
53030.0,STARLINK-4160,PAYLOAD,2024-07-19 20:31:36,15.08838029,0.0001355,53.2146,248.0979,88.5935,271.5213,5.6272e-05,6.08e-06,0.0,0 STARLINK-4160,1 53030U 22076AW  24201.85528481  .00000608  00000-0  56272-4 0  9998,2 53030  53.2146 248.0979 0001355  88.5935 271.5213 15.08838029112734,6917.886,95.438,540.689,538.814,0.0
53030.0,STARLINK-4160,PAYLOAD,2024-07-20 09:14:41,15.0884139,0.00013,53.2144,245.7202,85.6382,274.4759,1.8484e-06,-2.58e-06,0.0,0 STARLINK-4160,1 53030U 22076AW  24202.38520294 -.00000258  00000-0  18484-5 0  9997,2 53030  53.2144 245.7202 0001300  85.6382 274.4759 15.08841390113282,6917.876,95.437,540.64,538.842,0.0
53030.0,STARLINK-4160,PAYLOAD,2024-07-20 20:22:23,15.08840854,0.0001302,53.2145,243.6387,85.0479,275.0662,5.1281e-05,5.28e-06,0.0,0 STARLINK-4160,1 53030U 22076AW  24202.84888353  .00000528  00000-0  51281-4 0  9991,2 53030  53.2145 243.6387 0001302  85.0479 275.0662 15.08840854112886,6917.878,95.438,540.643,538.842,0.0
53030.0,STARLINK-4160,PAYLOAD,2024-07-21 09:05:29,15.08831844,0.0001403,53.2143,241.2595,87.8471,272.2682,-5.9095e-05,-1.228e-05,0.0,0 STARLINK-4160,1 53030U 22076AW  24203.37880922 -.00001228  00000-0 -59095-4 0  9995,2 53030  53.2143 241.2595 0001403  87.8471 272.2682 15.08831844113435,6917.905,95.438,540.741,538.8,0.0
53030.0,STARLINK-4160,PAYLOAD,2024-07-22 08:56:16,15.08837116,0.0001575,53.2154,236.7989,97.0875,263.0296,-7.5376e-07,-3e-06,0.0,0 STARLINK-4160,1 53030U 22076AW  24204.37240814 -.00000300  00000-0 -75376-6 0  9998,2 53030  53.2154 236.7989 0001575  97.0875 263.0296 15.08837116113587,6917.889,95.438,540.844,538.665,0.0
53030.0,STARLINK-4160,PAYLOAD,2024-07-23 08:47:02,15.08841923,0.0001506,53.2151,232.3385,94.3435,265.7729,0.00012375,1.682e-05,0.0,0 STARLINK-4160,1 53030U 22076AW  24205.36600664  .00001682  00000-0  12375-3 0  9990,2 53030  53.2151 232.3385 0001506  94.3435 265.7729 15.08841923113268,6917.875,95.437,540.781,538.698,0.0
53030.0,STARLINK-4160,PAYLOAD,2024-07-24 05:27:04,15.08829232,0.0001478,53.215,228.4725,92.3152,267.801,-0.00015767,-2.796e-05,0.0,0 STARLINK-4160,1 53030U 22076AW  24206.22713321 -.00002796  00000-0 -15767-3 0  9998,2 53030  53.2150 228.4725 0001478  92.3152 267.8010 15.08829232113864,6917.913,95.438,540.801,538.756,0.0
53030.0,STARLINK-4160,PAYLOAD,2024-07-24 08:37:50,15.08827373,0.0001474,53.2152,227.8779,92.2767,267.8394,-0.00018644,-3.253e-05,0.0,0 STARLINK-4160,1 53030U 22076AW  24206.35961439 -.00003253  00000-0 -18644-3 0  9993,2 53030  53.2152 227.8779 0001474  92.2767 267.8394 15.08827373113415,6917.919,95.438,540.804,538.764,0.0
53030.0,STARLINK-4160,PAYLOAD,2024-07-25 06:53:14,15.08832832,0.0001373,53.2159,223.7139,91.4221,268.6929,-2.8072e-05,-7.35e-06,0.0,0 STARLINK-4160,1 53030U 22076AW  24207.28697478 -.00000735  00000-0 -28072-4 0  9994,2 53030  53.2159 223.7139 0001373  91.4221 268.6929 15.08832832113555,6917.902,95.438,540.717,538.817,0.0
53030.0,STARLINK-4160,PAYLOAD,2024-07-25 10:04:00,15.08836304,0.0001377,53.2158,223.1191,90.4738,269.6412,-3.2965e-05,-8.12e-06,0.0,0 STARLINK-4160,1 53030U 22076AW  24207.41945280 -.00000812  00000-0 -32965-4 0  9998,2 53030  53.2158 223.1191 0001377  90.4738 269.6412 15.08836304114043,6917.892,95.438,540.709,538.804,0.0
53030.0,STARLINK-4160,PAYLOAD,2024-07-26 09:54:47,15.08844274,0.0001335,53.2148,218.657,82.4506,277.6638,0.0001567,2.207e-05,0.0,0 STARLINK-4160,1 53030U 22076AW  24208.41304945  .00002207  00000-0  15670-3 0  9997,2 53030  53.2148 218.6570 0001335  82.4506 277.6638 15.08844274114190,6917.867,95.437,540.656,538.809,0.0
53030.0,STARLINK-4160,PAYLOAD,2024-07-26 17:51:43,15.0884142,0.000127,53.2144,217.1711,86.4061,273.7076,8.118e-05,1.004e-05,0.0,0 STARLINK-4160,1 53030U 22076AW  24208.74425020  .00001004  00000-0  81180-4 0  9995,2 53030  53.2144 217.1711 0001270  86.4061 273.7076 15.08841420113771,6917.876,95.437,540.62,538.862,0.0
53030.0,STARLINK-4160,PAYLOAD,2024-07-27 04:59:25,15.08835839,0.0001298,53.2144,215.0893,87.527,272.587,-9.0405e-05,-1.726e-05,0.0,0 STARLINK-4160,1 53030U 22076AW  24209.20793282 -.00001726  00000-0 -90405-4 0  9998,2 53030  53.2144 215.0893 0001298  87.5270 272.5870 15.08835839114310,6917.893,95.438,540.656,538.86,0.0
53030.0,STARLINK-4160,PAYLOAD,2024-07-27 06:34:48,15.08835483,0.000129,53.2143,214.7919,87.6117,272.5023,-9.6599e-05,-1.825e-05,0.0,0 STARLINK-4160,1 53030U 22076AW  24209.27417288 -.00001825  00000-0 -96599-4 0  9994,2 53030  53.2143 214.7919 0001290  87.6117 272.5023 15.08835483113850,6917.894,95.438,540.652,538.867,0.0
53030.0,STARLINK-4160,PAYLOAD,2024-07-27 09:45:34,15.08839745,0.00014,53.2146,214.1976,86.3948,273.7204,-2.9957e-05,-7.65e-06,0.0,0 STARLINK-4160,1 53030U 22076AW  24209.40665095 -.00000765  00000-0 -29957-4 0  9996,2 53030  53.2146 214.1976 0001400  86.3948 273.7204 15.08839745113872,6917.881,95.438,540.715,538.778,0.0
53030.0,STARLINK-4160,PAYLOAD,2024-07-28 06:25:35,15.0883994,0.0001433,53.2143,210.3314,87.5724,272.5433,-4.3782e-05,-9.85e-06,0.0,0 STARLINK-4160,1 53030U 22076AW  24210.26777023 -.00000985  00000-0 -43782-4 0  9993,2 53030  53.2143 210.3314 0001433  87.5724 272.5433 15.08839940114479,6917.881,95.438,540.737,538.754,0.0
